[{"OBJECT_NAME":"FALCONSAT-10","OBJECT_ID":"2023-174AM","EPOCH":"2026-03-09T16:51:34.085376","MEAN_MOTION":15.26670596,"ECCENTRICITY":0.00089318,"INCLINATION":97.3865,"RA_OF_ASC_NODE":145.7938,"ARG_OF_PERICENTER":169.5942,"MEAN_ANOMALY":190.5483,"EPHEMERIS_TYPE":0,"CLASSIFICATION_TYPE":"U","NORAD_CAT_ID":58291,"ELEMENT_SET_NO":999,"REV_AT_EPOCH":12958,"BSTAR":0.00025968794,"MEAN_MOTION_DOT":6.748e-5,"MEAN_MOTION_DDOT":0},{"OBJECT_NAME":"STARLINK-33632","OBJECT_ID":"2025-076J","EPOCH":"2026-03-09T23:51:16.246656","MEAN_MOTION":15.27601616,"ECCENTRICITY":7.808e-5,"INCLINATION":43.001,"RA_OF_ASC_NODE":320.2636,"ARG_OF_PERICENTER":251.8295,"MEAN_ANOMALY":108.2472,"EPHEMERIS_TYPE":0,"CLASSIFICATION_TYPE":"U","NORAD_CAT_ID":63577,"ELEMENT_SET_NO":999,"REV_AT_EPOCH":5187,"BSTAR":0.0013243674,"MEAN_MOTION_DOT":0.00036385,"MEAN_MOTION_DDOT":0}]
